[{"OBJECT_NAME":"STARLINK-5045","OBJECT_ID":"2022-119Q","EPOCH":"2026-03-09T23:32:37.338144","MEAN_MOTION":15.08825167,"ECCENTRICITY":0.00012746,"INCLINATION":53.2201,"RA_OF_ASC_NODE":322.4523,"ARG_OF_PERICENTER":94.5813,"MEAN_ANOMALY":265.5325,"EPHEMERIS_TYPE":0,"CLASSIFICATION_TYPE":"U","NORAD_CAT_ID":53900,"ELEMENT_SET_NO":999,"REV_AT_EPOCH":19173,"BSTAR":1.1409143e-5,"MEAN_MOTION_DOT":-1.06e-6,"MEAN_MOTION_DDOT":0},{"OBJECT_NAME":"MINOTAUR 4 R\/B","OBJECT_ID":"2020-046E","EPOCH":"2026-03-09T23:21:28.488960","MEAN_MOTION":15.06543892,"ECCENTRICITY":0.00095926,"INCLINATION":53.9792,"RA_OF_ASC_NODE":306.0413,"ARG_OF_PERICENTER":86.078,"MEAN_ANOMALY":274.1318,"EPHEMERIS_TYPE":0,"CLASSIFICATION_TYPE":"U","NORAD_CAT_ID":45877,"ELEMENT_SET_NO":999,"REV_AT_EPOCH":23396,"BSTAR":0.00016618262,"MEAN_MOTION_DOT":2.204e-5,"MEAN_MOTION_DDOT":0}]
